HST                     
1 20580U 90037B   26158.29828937  .00006010  00000+0  18954-3 0  9990
2 20580  28.4712 148.1547 0001938  44.7656 315.3096 15.30642118787059
POLAR                   
1 23802U 96013A   26158.02404796  .00000119  00000+0  00000+0 0  9997
2 23802  79.8419 227.1714 6460465 209.4311  89.2180  1.29846147144728
SWAS                    
1 25560U 98071A   26159.53422963  .00004378  00000+0  27822-3 0  9995
2 25560  69.8962 249.8323 0008945 267.6953  92.3187 15.09572739495966
CXO                     
1 25867U 99040B   26161.44248451  .00000667  00000+0  00000+0 0  9995
2 25867  56.0540 116.8503 7852548 310.2578   0.2529  0.37805334 17299
XMM-NEWTON              
1 25989U 99066A   26161.36780905  .00000089  00000+0  00000+0 0  9992
2 25989  64.5271 283.0748 4677764  65.0342   0.0416  0.50122831 22976
TERRA                   
1 25994U 99068A   26159.46930956  .00000413  00000+0  93100-4 0  9990
2 25994  97.9459 209.3609 0000952 230.9637 253.7925 14.61096449408334
CLUSTER II-FM7 (SAMBA)  
1 26410U 00041A   26161.44626664  .00004459  00000+0  00000+0 0  9992
2 26410 149.9132  49.6129 9048191 266.6863 359.9829  0.44840364 20284
CLUSTER II-FM8 (TANGO)  
1 26464U 00045B   26157.18212104  .00004544  00000+0  00000+0 0  9996
2 26464 150.1407  49.6985 9046201 266.6195   3.2041  0.44406384 20263
ODIN                    
1 26702U 01007A   26159.06855770  .00163930  00000+0  11910-2 0  9991
2 26702  97.3856 199.4433 0006607 154.2551 205.9043 15.72855402387967
TIMED                   
1 26998U 01055B   26159.37739110  .00001423  00000+0  13277-3 0  9991
2 26998  74.0679 252.7563 0000621 353.4262   6.6915 14.95275446329506
CORIOLIS                
1 27640U 03001A   26159.45950829  .00000102  00000+0  68462-4 0  9990
2 27640  98.7126 166.4776 0012977 235.5174 124.4777 14.19942465212983
SORCE                   
1 27651U 03004A   26158.70861575  .00003445  00000+0  25720-3 0  9993
2 27651  39.9917 315.7552 0017869 339.7662  20.2423 15.03662902270473
MOST                    
1 27843U 03031D   26159.48208485  .00000073  00000+0  53559-4 0  9993
2 27843  98.7045 167.3295 0008698 278.9664  81.0529 14.21320733189475
SCISAT 1                
1 27858U 03036A   26159.51428868  .00000589  00000+0  79860-4 0  9992
2 27858  73.9287 188.5750 0008688 257.5169 102.5035 14.81439452230166
SWIFT                   
1 28485U 04047A   26157.62516102  .00061964  00000+0  53892-3 0  9991
2 28485  20.5528 266.3162 0002758 138.0120 222.0537 15.67271412185207
HINODE (SOLAR-B)        
1 29479U 06041A   26159.46446674  .00000759  00000+0  13885-3 0  9994
2 29479  98.0548 175.7455 0016414 319.6622  40.3365 14.68611163 53596
SHIJIAN-6 02A (SJ-6 02A)
1 29505U 06046A   26159.51600103  .00007226  00000+0  37071-3 0  9993
2 29505  97.6367 200.5181 0003685 145.2041 214.9433 15.16843213 70958
SHIJIAN-6 02B (SJ-6 02B)
1 29506U 06046B   26159.48221532  .00001926  00000+0  15392-3 0  9998
2 29506  97.7163 188.5948 0014746  85.5433 274.7476 15.01356666 69438
FGRST (GLAST)           
1 33053U 08029A   26158.99603507  .00004036  00000+0  14871-3 0  9990
2 33053  25.5826 268.3003 0007830 214.9845 145.0179 15.23903473994430
SDO                     
1 36395U 10005A   26159.32339038 -.00000060  00000+0  00000+0 0  9991
2 36395  34.6325  86.4781 0001516  53.0773 131.5755  1.00270840 59972
CRYOSAT 2               
1 36508U 10013A   26159.53539641  .00000144  00000+0  34937-4 0  9994
2 36508  92.0348 275.1990 0002225  86.2057 273.9405 14.51896687856826
X-SAT                   
1 37389U 11015C   26159.52005858  .00000023  00000+0  27112-4 0  9995
2 37389  98.3512 136.9567 0014536  13.6110 346.5460 14.25203325786442
GCOM-W1 (SHIZUKU)       
1 38337U 12025A   26159.45934058  .00000492  00000+0  11924-3 0  9999
2 38337  98.2020 100.1473 0001859  81.4179  33.1938 14.57116665747766
NUSTAR                  
1 38358U 12031A   26159.58337963  .00006736  00000+0  36321-3 0  9990
2 38358   6.0267  98.6689 0008544 330.5459  58.1148 15.08723023  1308
NEOSSAT                 
1 39089U 13009D   26159.49869314  .00000150  00000+0  66688-4 0  9992
2 39089  98.4176 339.7382 0009789 272.8783  87.1283 14.35823426695491
BRITE-AUSTRIA           
1 39091U 13009F   26159.50164074  .00000190  00000+0  79283-4 0  9997
2 39091  98.3993 339.1526 0008963 265.8443  94.1719 14.36538756695809
IRIS                    
1 39197U 13033A   26159.47785057  .00001096  00000+0  13160-3 0  9994
2 39197  97.9336 358.7822 0024227 350.9910   9.0867 14.85868163699089
HISAKI (SPRINT-A)       
1 39253U 13049A   26159.51157144  .00000132  00000+0  90098-4 0  9995
2 39253  29.7205 264.1203 0136894 306.5477  52.2561 13.55543804630244
CASSIOPE                
1 39265U 13055A   26159.49990049  .00043691 -54612-6  48204-3 0  9995
2 39265  80.9146  77.2632 0295603  91.5719 271.9392 15.24403002666348
STSAT-3                 
1 39422U 13066G   26159.52304781  .00003116  00000+0  23768-3 0  9998
2 39422  97.6213 129.5512 0010958  67.6407 292.5978 15.02704577682903
SWARM B                 
1 39451U 13067A   26159.49205522  .00003499  00000+0  12497-3 0  9991
2 39451  87.7441 344.9593 0003388  90.2959 269.8679 15.28498830681918
SWARM A                 
1 39452U 13067B   26159.44418166  .00009840  00000+0  17021-3 0  9991
2 39452  87.3327  59.4887 0003001  91.8371 268.3233 15.50777061704893
SWARM C                 
1 39453U 13067C   26159.44406815  .00009951  00000+0  17211-3 0  9994
2 39453  87.3327  58.0700 0002961  91.8270 268.3330 15.50779707704858
BRITE-CA1 (TORONTO)     
1 40020U 14033L   26159.34087104  .00000723  00000+0  11645-3 0  9998
2 40020  97.9729 288.4324 0077461 305.8308  53.5720 14.72664800640914
OCO 2                   
1 40059U 14035A   26159.50309649  .00000462  00000+0  11260-3 0  9994
2 40059  98.2015 100.9286 0001484  87.4388 272.6980 14.57104452634781
BRITE-PL2 (HEWELIUSZ)   
1 40119U 14049B   26159.20108343  .00002529  00000+0  23888-3 0  9996
2 40119  97.9088 271.1327 0015155 135.2665 224.9780 14.94564335640103
MMS 1                   
1 40482U 15011A   26159.50002315 -.00000072  00000+0  00000+0 0  9993
2 40482  72.1863 348.8931 8336000 167.2409 132.7953  0.28318433  1386
MMS 2                   
1 40483U 15011B   26159.50002315 -.00000072  00000+0  00000+0 0  9994
2 40483  72.1865 348.8953 8336781 167.2465 132.7836  0.28318437  1385
MMS 3                   
1 40484U 15011C   26159.50002315 -.00000071  00000+0  00000+0 0  9994
2 40484  72.1895 348.8998 8335971 167.2410 132.7802  0.28318412  1384
MMS 4                   
1 40485U 15011D   26159.50002315 -.00000072  00000+0  00000+0 0  9996
2 40485  72.1858 348.8955 8335573 167.2488 132.7684  0.28318401  1386
ASTROSAT                
1 40930U 15052A   26159.27859492  .00001670  00000+0  12145-3 0  9997
2 40930   5.9954 219.4891 0008543 268.4611  91.4538 14.82493087578503
DAMPE                   
1 41173U 15078A   26159.47439711  .00001881  00000+0  65748-4 0  9997
2 41173  97.4562 164.8991 0013668 103.5794 256.6970 15.30764799583217
PISAT                   
1 41784U 16059B   26159.49328747  .00001004  00000+0  17847-3 0  9996
2 41784  97.8178 160.3198 0027774 231.5012 128.3703 14.68969099518464
HXMT (HUIYAN)           
1 42758U 17034A   26159.51719596  .00004305  00000+0  21464-3 0  9998
2 42758  43.0131 231.3169 0030173  89.9042 270.5264 15.18416131496344
FLYING LAPTOP           
1 42831U 17042G   26159.51986329  .00003752  00000+0  29663-3 0  9993
2 42831  97.4657 315.3891 0019144 150.0384 210.1941 15.01089764485150
ZHANGHENG 1-01 (CSES-1) 
1 43194U 18015C   26159.51939286  .00006497  00000+0  29774-3 0  9999
2 43194  97.6868 325.0064 0017169 299.0410  60.9104 15.20701325463320
SALSAT                  
1 46495U 20068K   26158.98778249  .00008175  00000+0  28698-3 0  9996
2 46495  97.8853 161.4934 0008911 345.1768  14.9208 15.29667638313959
IXPE                    
1 49954U 21121A   26159.50002315  .00009806  00000+0  52760-3 0  9992
2 49954   0.2314  23.1606 0007606 308.5314 164.7554 15.10174909  5929
SMILE                   
1 69123U 26109A   26144.65318427 -.00001976  00000+0 -42379-3 0  9994
2 69123  70.0007 229.2745 0009123 259.5159 100.4951 14.57062785   802
